{"type": "FeatureCollection", "features": [ {"type": "Feature", "properties": {"norad_id": 39778, "name": "IRIDIUM 33 DEB", "group": "iridium-33-debris", "lat": -67.17041809853944, "lon": -124.30545086167913, "alt_km": 725.7069873251539, "timestamp": "2025-12-03T22:42:33.018534+00:00", "meta": {"OBJECT_NAME": "IRIDIUM 33 DEB", "OBJECT_ID": "1997-051AAK", "EPOCH": "2025-12-03T11:39:58.195008", "MEAN_MOTION": 14.54148527, "ECCENTRICITY": 0.0008813, "INCLINATION": 86.3788, "RA_OF_ASC_NODE": 47.2421, "ARG_OF_PERICENTER": 68.6106, "MEAN_ANOMALY": 291.604, "EPHEMERIS_TYPE": 0, "CLASSIFICATION_TYPE": "U", "NORAD_CAT_ID": 39778, "ELEMENT_SET_NO": 999, "REV_AT_EPOCH": 60558, "BSTAR": 0.0013693, "MEAN_MOTION_DOT": 5.812e-05, "MEAN_MOTION_DDOT": 0}, "tle": {"line1": "1 39778U 97051AAK 25337.48609022  .00005812  00000+0  13693-2 0  9996", "line2": "2 39778  86.3788  47.2421 0008813  68.6106 291.6040 14.54148527605580"}}, "geometry": {"type": "Point", "coordinates": [-124.30545086167913, -67.17041809853944]}}, {"type": "Feature", "properties": {"norad_id": 39781, "name": "IRIDIUM 33 DEB", "group": "iridium-33-debris", "lat": -7.639029627989945, "lon": -98.8865563903546, "alt_km": 746.0255062406804, "timestamp": "2025-12-03T22:42:33.018543+00:00", "meta": {"OBJECT_NAME": "IRIDIUM 33 DEB", "OBJECT_ID": "1997-051AAN", "EPOCH": "2025-12-01T14:05:13.737984", "MEAN_MOTION": 14.20093316, "ECCENTRICITY": 0.01818611, "INCLINATION": 86.3695, "RA_OF_ASC_NODE": 262.5729, "ARG_OF_PERICENTER": 308.3699, "MEAN_ANOMALY": 228.4219, "EPHEMERIS_TYPE": 0, "CLASSIFICATION_TYPE": "U", "NORAD_CAT_ID": 39781, "ELEMENT_SET_NO": 999, "REV_AT_EPOCH": 7948, "BSTAR": 0.0058998753, "MEAN_MOTION_DOT": 0.00014872, "MEAN_MOTION_DDOT": 0}, "tle": {"line1": "1 39781U 97051AAN 25335.58696456  .00014872  00000+0  58999-2 0  9990", "line2": "2 39781  86.3695 262.5729 0181861 308.3699 228.4219 14.20093316 79488"}}, "geometry": {"type": "Point", "coordinates": [-98.8865563903546, -7.639029627989945]}}, {"type": "Feature", "properties": {"norad_id": 39783, "name": "IRIDIUM 33 DEB", "group": "iridium-33-debris", "lat": 51.86487190121477, "lon": -95.19547962838519, "alt_km": 476.15064968707884, "timestamp": "2025-12-03T22:42:33.018553+00:00", "meta": {"OBJECT_NAME": "IRIDIUM 33 DEB", "OBJECT_ID": "1997-051AAQ", "EPOCH": "2025-11-16T15:05:40.850592", "MEAN_MOTION": 15.19327111, "ECCENTRICITY": 0.00057535, "INCLINATION": 86.1306, "RA_OF_ASC_NODE": 268.8004, "ARG_OF_PERICENTER": 179.9151, "MEAN_ANOMALY": 1.8316, "EPHEMERIS_TYPE": 0, "CLASSIFICATION_TYPE": "U", "NORAD_CAT_ID": 39783, "ELEMENT_SET_NO": 999, "REV_AT_EPOCH": 60401, "BSTAR": 0.010398125, "MEAN_MOTION_DOT": 0.00226179, "MEAN_MOTION_DDOT": 0}, "tle": {"line1": "1 39783U 97051AAQ 25320.62894503  .00226179  00000+0  10398-1 0  9999", "line2": "2 39783  86.1306 268.8004 0005753 179.9151   1.8316 15.19327111604018"}}, "geometry": {"type": "Point", "coordinates": [-95.19547962838519, 51.86487190121477]}}, {"type": "Feature", "properties": {"norad_id": 40996, "name": "IRIDIUM 33 DEB", "group": "iridium-33-debris", "lat": -63.41900617659872, "lon": -1.8085032424364755, "alt_km": 595.8561235199641, "timestamp": "2025-12-03T22:42:33.018562+00:00", "meta": {"OBJECT_NAME": "IRIDIUM 33 DEB", "OBJECT_ID": "1997-051ABJ", "EPOCH": "2025-12-02T08:31:11.979264", "MEAN_MOTION": 14.95250831, "ECCENTRICITY": 0.00120962, "INCLINATION": 86.3524, "RA_OF_ASC_NODE": 6.2584, "ARG_OF_PERICENTER": 92.2467, "MEAN_ANOMALY": 284.2756, "EPHEMERIS_TYPE": 0, "CLASSIFICATION_TYPE": "U", "NORAD_CAT_ID": 40996, "ELEMENT_SET_NO": 999, "REV_AT_EPOCH": 62333, "BSTAR": 0.0031243939, "MEAN_MOTION_DOT": 0.0003457, "MEAN_MOTION_DDOT": 0}, "tle": {"line1": "1 40996U 97051ABJ 25336.35499976  .00034570  00000+0  31244-2 0  9995", "line2": "2 40996  86.3524   6.2584 0012096  92.2467 284.2756 14.95250831623330"}}, "geometry": {"type": "Point", "coordinates": [-1.8085032424364755, -63.41900617659872]}}, {"type": "Feature", "properties": {"norad_id": 40998, "name": "IRIDIUM 33 DEB", "group": "iridium-33-debris", "lat": -16.14002735579642, "lon": -121.53956066789385, "alt_km": 746.647159110019, "timestamp": "2025-12-03T22:42:33.018571+00:00", "meta": {"OBJECT_NAME": "IRIDIUM 33 DEB", "OBJECT_ID": "1997-051ABL", "EPOCH": "2025-12-03T12:06:12.154176", "MEAN_MOTION": 14.45043538, "ECCENTRICITY": 0.0009571, "INCLINATION": 86.3836, "RA_OF_ASC_NODE": 57.6004, "ARG_OF_PERICENTER": 108.6038, "MEAN_ANOMALY": 309.9308, "EPHEMERIS_TYPE": 0, "CLASSIFICATION_TYPE": "U", "NORAD_CAT_ID": 40998, "ELEMENT_SET_NO": 999, "REV_AT_EPOCH": 6548, "BSTAR": 0.00081639, "MEAN_MOTION_DOT": 2.87e-05, "MEAN_MOTION_DDOT": 0}, "tle": {"line1": "1 40998U 97051ABL 25337.50430734  .00002870  00000+0  81639-3 0  9994", "line2": "2 40998  86.3836  57.6004 0009571 108.6038 309.9308 14.45043538 65488"}}, "geometry": {"type": "Point", "coordinates": [-121.53956066789385, -16.14002735579642]}}, {"type": "Feature", "properties": {"norad_id": 46435, "name": "IRIDIUM 33 DEB", "group": "iridium-33-debris", "lat": 60.595799147319234, "lon": 11.104998418594505, "alt_km": 933.2364385415449, "timestamp": "2025-12-03T22:42:33.018580+00:00", "meta": {"OBJECT_NAME": "IRIDIUM 33 DEB", "OBJECT_ID": "1997-051ABN", "EPOCH": "2025-12-01T21:34:01.840224", "MEAN_MOTION": 14.31281633, "ECCENTRICITY": 0.02132677, "INCLINATION": 86.2832, "RA_OF_ASC_NODE": 198.6078, "ARG_OF_PERICENTER": 311.3277, "MEAN_ANOMALY": 63.4086, "EPHEMERIS_TYPE": 0, "CLASSIFICATION_TYPE": "U", "NORAD_CAT_ID": 46435, "ELEMENT_SET_NO": 999, "REV_AT_EPOCH": 7761, "BSTAR": 0.0078564893, "MEAN_MOTION_DOT": 0.00026766, "MEAN_MOTION_DDOT": 0}, "tle": {"line1": "1 46435U 97051ABN 25335.89863241  .00026766  00000+0  78565-2 0  9992", "line2": "2 46435  86.2832 198.6078 0213267 311.3277  63.4086 14.31281633 77617"}}, "geometry": {"type": "Point", "coordinates": [11.104998418594505, 60.595799147319234]}}, {"type": "Feature", "properties": {"norad_id": 46734, "name": "IRIDIUM 33 DEB", "group": "iridium-33-debris", "lat": -3.288669820966034, "lon": 6.509950586650628, "alt_km": 728.1029373715719, "timestamp": "2025-12-03T22:42:33.018589+00:00", "meta": {"OBJECT_NAME": "IRIDIUM 33 DEB", "OBJECT_ID": "1997-051ABR", "EPOCH": "2025-12-02T08:29:47.143104", "MEAN_MOTION": 14.41781763, "ECCENTRICITY": 0.00396088, "INCLINATION": 86.2647, "RA_OF_ASC_NODE": 7.4234, "ARG_OF_PERICENTER": 10.3878, "MEAN_ANOMALY": 7.5536, "EPHEMERIS_TYPE": 0, "CLASSIFICATION_TYPE": "U", "NORAD_CAT_ID": 46734, "ELEMENT_SET_NO": 999, "REV_AT_EPOCH": 62861, "BSTAR": 0.0011870669, "MEAN_MOTION_DOT": 3.931e-05, "MEAN_MOTION_DDOT": 0}, "tle": {"line1": "1 46734U 97051ABR 25336.35401786  .00003931  00000+0  11871-2 0  9994", "line2": "2 46734  86.2647   7.4234 0039608  10.3878   7.5536 14.41781763628613"}}, "geometry": {"type": "Point", "coordinates": [6.509950586650628, -3.288669820966034]}}, {"type": "Feature", "properties": {"norad_id": 46965, "name": "IRIDIUM 33 DEB", "group": "iridium-33-debris", "lat": -85.5557909944426, "lon": -70.9436502528058, "alt_km": 700.2739009322304, "timestamp": "2025-12-03T22:42:33.018598+00:00", "meta": {"OBJECT_NAME": "IRIDIUM 33 DEB", "OBJECT_ID": "1997-051ABX", "EPOCH": "2025-12-01T19:17:57.587136", "MEAN_MOTION": 14.60159185, "ECCENTRICITY": 0.00196274, "INCLINATION": 86.3356, "RA_OF_ASC_NODE": 345.5484, "ARG_OF_PERICENTER": 10.7692, "MEAN_ANOMALY": 169.2127, "EPHEMERIS_TYPE": 0, "CLASSIFICATION_TYPE": "U", "NORAD_CAT_ID": 46965, "ELEMENT_SET_NO": 999, "REV_AT_EPOCH": 62108, "BSTAR": 0.00078040871, "MEAN_MOTION_DOT": 3.788e-05, "MEAN_MOTION_DDOT": 0}, "tle": {"line1": "1 46965U 97051ABX 25335.80413874  .00003788  00000+0  78041-3 0  9993", "line2": "2 46965  86.3356 345.5484 0019627  10.7692 169.2127 14.60159185621081"}}, "geometry": {"type": "Point", "coordinates": [-70.9436502528058, -85.5557909944426]}}, {"type": "Feature", "properties": {"norad_id": 46971, "name": "IRIDIUM 33 DEB", "group": "iridium-33-debris", "lat": -72.02515627265429, "lon": 168.62896610517024, "alt_km": 584.323645465237, "timestamp": "2025-12-03T22:42:33.018608+00:00", "meta": {"OBJECT_NAME": "IRIDIUM 33 DEB", "OBJECT_ID": "1997-051ACD", "EPOCH": "2025-11-30T18:57:44.502624", "MEAN_MOTION": 14.96904917, "ECCENTRICITY": 0.00065248, "INCLINATION": 86.3392, "RA_OF_ASC_NODE": 338.7285, "ARG_OF_PERICENTER": 8.9727, "MEAN_ANOMALY": 165.6369, "EPHEMERIS_TYPE": 0, "CLASSIFICATION_TYPE": "U", "NORAD_CAT_ID": 46971, "ELEMENT_SET_NO": 999, "REV_AT_EPOCH": 64051, "BSTAR": 0.0032009998, "MEAN_MOTION_DOT": 0.00036919, "MEAN_MOTION_DDOT": 0}, "tle": {"line1": "1 46971U 97051ACD 25334.79009841  .00036919  00000+0  32010-2 0  9999", "line2": "2 46971  86.3392 338.7285 0006524   8.9727 165.6369 14.96904917640518"}}, "geometry": {"type": "Point", "coordinates": [168.62896610517024, -72.02515627265429]}}, {"type": "Feature", "properties": {"norad_id": 46974, "name": "IRIDIUM 33 DEB", "group": "iridium-33-debris", "lat": 44.19455166142078, "lon": -74.49799975893534, "alt_km": 729.3359295356477, "timestamp": "2025-12-03T22:42:33.018618+00:00", "meta": {"OBJECT_NAME": "IRIDIUM 33 DEB", "OBJECT_ID": "1997-051ACG", "EPOCH": "2025-11-30T02:35:30.463008", "MEAN_MOTION": 14.43749529, "ECCENTRICITY": 0.00958857, "INCLINATION": 86.2984, "RA_OF_ASC_NODE": 110.7848, "ARG_OF_PERICENTER": 228.1133, "MEAN_ANOMALY": 131.1861, "EPHEMERIS_TYPE": 0, "CLASSIFICATION_TYPE": "U", "NORAD_CAT_ID": 46974, "ELEMENT_SET_NO": 999, "REV_AT_EPOCH": 57326, "BSTAR": 0.0048958995, "MEAN_MOTION_DOT": 0.00017648, "MEAN_MOTION_DDOT": 0}, "tle": {"line1": "1 46974U 97051ACG 25334.10799147  .00017648  00000+0  48959-2 0  9999", "line2": "2 46974  86.2984 110.7848 0095885 228.1133 131.1861 14.43749529573265"}}, "geometry": {"type": "Point", "coordinates": [-74.49799975893534, 44.19455166142078]}}]}